HST                     
1 20580U 90037B   24154.12690863  .00006453  00000+0  30339-3 0  9993
2 20580  28.4684  86.0170 0002433 230.7982 129.2394 15.17542954675005
